STARLINK-4453           
1 53497U 22099AJ  24360.23858917  .00001455  00000+0  11785-3 0  9997
2 53497  97.6553 118.3363 0004321 229.8480 130.2366 15.01262204130056
STARLINK-4439           
1 53498U 22099AK  24360.30548401  .00000994  00000+0  81989-4 0  9991
2 53498  97.6552 118.4135 0002926 237.3614 122.7328 15.01267168130302
STARLINK-4454           
1 53499U 22099AL  24360.57741056 -.00001694  00000+0 -12731-3 0  9990
2 53499  97.6526 118.6538 0001589 215.0798 145.0322 15.01262079130109
STARLINK-4455           
1 53500U 22099AM  24360.24044463  .00004965  00000+0  39061-3 0  9992
2 53500  97.6539 118.3380 0003485 240.5526 119.5351 15.01280074130054
STARLINK-4434           
1 53501U 22099AN  24360.29783838  .00002074  00000+0  16599-3 0  9994
2 53501  97.6557 118.4008 0001548 245.9110 114.1952 15.01263984130069
STARLINK-4435           
1 53502U 22099AP  24360.56999542  .00001374  00000+0  11149-3 0  9994
2 53502  97.6553 118.6622 0004201 232.9911 127.0930 15.01269293130343
STARLINK-4461           
1 53503U 22099AQ  24360.57024147  .00006925  00000+0  54288-3 0  9994
2 53503  97.6542 118.6503 0003596 229.6638 130.4273 15.01280612130105
STARLINK-4448           
1 53504U 22099AR  24360.23491062  .00006476  00000+0  50870-3 0  9996
2 53504  97.6554 118.3333 0002705 219.8702 140.2324 15.01228536130058
STARLINK-4446           
1 53505U 22099AS  24360.29414039  .00002395  00000+0  19101-3 0  9990
2 53505  97.6590 118.3980 0002301 194.0626 166.0535 15.01263671130068
STARLINK-4437           
1 53506U 22099AT  24360.23303778  .00002699  00000+0  21465-3 0  9995
2 53506  97.6555 118.3233 0003551 223.1223 136.9724 15.01258019130051
STARLINK-4444           
1 53507U 22099AU  24360.29228128  .00001902  00000+0  15260-3 0  9999
2 53507  97.6578 118.3999 0001237 248.5594 111.5498 15.01269484130063
STARLINK-4443           
1 53508U 22099AV  24360.29598565  .00001526  00000+0  12333-3 0  9995
2 53508  97.6567 118.3968 0002057 218.6181 141.4896 15.01267208130302
STARLINK-4402           
1 53509U 22099AW  24360.62369526  .00005401  00000+0  42470-3 0  9997
2 53509  97.6589 118.7245 0001911 220.5298 139.5784 15.01269544130352
STARLINK-4441           
1 53510U 22099AX  24360.61999760  .00000851  00000+0  70822-4 0  9994
2 53510  97.6579 118.7351 0001819  86.2402 273.9031 15.01260819130356
STARLINK-4511           
1 53527U 22101A   24359.97063950  .00038451  00000+0  22477-2 0  9994
2 53527  53.2152 247.7023 0003697 135.8012 224.3277 15.11537506129780
STARLINK-4503           
1 53528U 22101B   24360.01171521  .00005723  00000+0  37726-3 0  9996
2 53528  53.2167 247.9121 0001490  90.3159 269.8004 15.08853879129786
STARLINK-4478           
1 53529U 22101C   24360.40179107 -.00000827  00000+0 -33837-4 0  9990
2 53529  53.2188 246.1712 0001605  92.6229 267.4947 15.08848698129848
STARLINK-4482           
1 53530U 22101D   24360.68150218  .00000387  00000+0  42433-4 0  9995
2 53530  53.2184 245.1236 0001550 104.6810 255.4354 15.08843231129886
STARLINK-4487           
1 53531U 22101E   24360.39811957  .00005733  00000+0  37789-3 0  9995
2 53531  53.2179 246.1744 0001189  84.2244 275.8884 15.08851462129843
STARLINK-4483           
1 53532U 22101F   24360.43119860  .00004835  00000+0  32141-3 0  9994
2 53532  53.2182 246.0244 0001731  99.3862 260.7326 15.08869091129850
STARLINK-4493           
1 53533U 22101G   24360.42754224  .00000693  00000+0  61633-4 0  9990
2 53533  53.2169 246.0352 0001448  81.0977 279.0179 15.08848052129859
STARLINK-4488           
1 53534U 22101H   24360.66667824  .01264564  00000+0  46046-2 0  9995
2 53534  53.2151 235.2358 0000483 140.3727  51.9567 15.85256270130015
STARLINK-4138           
1 53535U 22101J   24360.68883590  .00000572  00000+0  54036-4 0  9994
2 53535  53.2160 244.8703 0001337 101.0966 259.0177 15.08839878129892
STARLINK-4053           
1 53536U 22101K   24360.39903068  .00001440  00000+0  10854-3 0  9990
2 53536  53.2164 236.0967 0001414  82.7843 277.3310 15.08850699129983
STARLINK-4120           
1 53537U 22101L   24360.42482002  .00000966  00000+0  78768-4 0  9996
2 53537  53.2171 246.0276 0001451  92.6711 267.4447 15.08848597129852
STARLINK-4118           
1 53538U 22101M   24360.66766540  .00001298  00000+0  99602-4 0  9994
2 53538  53.2161 234.9650 0002576  90.2901 269.8387 15.08855685130024
STARLINK-4123           
1 53539U 22101N   24360.42019049  .00005352  00000+0  35401-3 0  9995
2 53539  53.2165 246.0765 0001345  92.3847 267.7299 15.08850081129858
STARLINK-4486           
1 53540U 22101P   24360.63189905 -.00001412  00000+0 -70680-4 0  9993
2 53540  53.2162 235.4784 0001227  68.4750 291.6372 15.08818413130703
STARLINK-4485           
1 53541U 22101Q   24360.41283993  .00001598  00000+0  11845-3 0  9992
2 53541  53.2178 246.1063 0001351 100.9653 259.1491 15.08846243130547
STARLINK-4489           
1 53542U 22101R   24360.39167395  .00000754  00000+0  65455-4 0  9997
2 53542  53.2167 236.2062 0001129  89.5299 270.5822 15.08827318130677
STARLINK-4297           
1 53543U 22101S   24359.94272315  .00001264  00000+0  97496-4 0  9993
2 53543  53.2152 238.2884 0001556  93.0267 267.0903 15.08844485129915
STARLINK-4303           
1 53544U 22101T   24360.38431737  .00000865  00000+0  72455-4 0  9993
2 53544  53.2173 236.2384 0001636  85.9128 274.2051 15.08838704130651
STARLINK-4475           
1 53545U 22101U   24360.39535380  .00015742  00000+0  10048-2 0  9992
2 53545  53.2152 236.1891 0001409  96.4801 263.6351 15.08845885130679
STARLINK-4477           
1 53546U 22101V   24360.33366042  .00002800  00000+0  19399-3 0  9994
2 53546  53.2172 225.9969 0001820  93.0277 267.0923 15.08833922130123
STARLINK-4474           
1 53547U 22101W   24360.65295966  .00000536  00000+0  51772-4 0  9992
2 53547  53.2191 235.0358 0001608  81.1774 278.9401 15.08835976130025
STARLINK-4513           
1 53548U 22101X   24360.63823688  .00001600  00000+0  11858-3 0  9992
2 53548  53.2172 235.1001 0001375  94.6660 265.4489 15.08837860130026
STARLINK-4518           
1 53550U 22101Z   24360.36960009  .00011077  00000+0  71332-3 0  9996
2 53550  53.2169 236.3044 0001886  41.9641 318.1495 15.08820870130640
STARLINK-4514           
1 53551U 22101AA  24360.64192401  .00001075  00000+0  85670-4 0  9999
2 53551  53.2158 235.0845 0001765  93.6788 266.4406 15.08833387130022
STARLINK-4495           
1 53552U 22101AB  24360.36223447  .00000084  00000+0  23398-4 0  9992
2 53552  53.2152 236.3354 0001364  87.6430 272.4718 15.08837723130636
STARLINK-4501           
1 53553U 22101AC  24360.35486134 -.00003642  00000+0 -21097-3 0  9994
2 53553  53.2167 236.2410 0001267  78.6265 281.4869 15.08818974130648
STARLINK-4506           
1 53554U 22101AD  24360.35583643  .00000130  00000+0  26256-4 0  9998
2 53554  53.2172 236.3722 0001418  83.2370 276.8783 15.08837587129988
STARLINK-4504           
1 53555U 22101AE  24360.36591094  .00001486  00000+0  11145-3 0  9994
2 53555  53.2175 236.3204 0001457  94.3162 265.7996 15.08843489130648
STARLINK-4505           
1 53556U 22101AF  24360.67871154  .00001194  00000+0  93187-4 0  9990
2 53556  53.2185 234.9180 0003082 115.9254 244.2056 15.08830985130034
STARLINK-4502           
1 53557U 22101AG  24360.68975480 -.00000232  00000+0  34844-5 0  9998
2 53557  53.2159 234.8633 0001119  91.3461 268.7659 15.08848963130039
STARLINK-4494           
1 53558U 22101AH  24360.68098235  .00000547  00000+0  52458-4 0  9991
2 53558  53.2154 229.6257 0001287  81.7212 278.3926 15.08835326130103
STARLINK-4508           
1 53559U 22101AJ  24360.68239753 -.00000319  00000+0 -19759-5 0  9991
2 53559  53.2170 234.8987 0001460  89.9816 270.1343 15.08833947130035
STARLINK-4564           
1 53560U 22101AK  24360.32637130 -.00001599  00000+0 -82428-4 0  9998
2 53560  53.2160 226.6805 0001182  81.9857 278.1269 15.08834215130115
STARLINK-4563           
1 53561U 22101AL  24359.94639114  .00000895  00000+0  74294-4 0  9997
2 53561  53.2172 238.2042 0001484 104.5351 255.5806 15.08839238129920
STARLINK-4565           
1 53562U 22101AM  24360.65388859 -.00000624  00000+0 -21088-4 0  9990
2 53562  53.2156 225.1705 0001222  92.8619 267.2513 15.08848909130168
STARLINK-4561           
1 53563U 22101AN  24360.66126477  .00000592  00000+0  55286-4 0  9997
2 53563  53.2162 225.2179 0001725  86.3605 273.7585 15.08830260130165
STARLINK-4577           
1 53564U 22101AP  24359.91787988  .00001390  00000+0  10538-3 0  9991
2 53564  53.2152 228.3982 0001544  89.8758 270.2411 15.08841793130058
STARLINK-4575           
1 53565U 22101AQ  24359.92620512  .00000384  00000+0  42236-4 0  9995
2 53565  53.2156 228.4481 0001475  91.5747 268.5414 15.08845217130710
STARLINK-4576           
1 53566U 22101AR  24360.63913886  .00000466  00000+0  47341-4 0  9998
2 53566  53.2171 225.0826 0000206  88.7463 271.3553 15.08848776130166
STARLINK-4585           
1 53567U 22101AS  24359.98780589  .00004232  00000+0  28373-3 0  9995
2 53567  53.2160 228.1244 0001517  96.7617 263.3548 15.08851148130060
STARLINK-4583           
1 53568U 22101AT  24360.36313744  .00001153  00000+0  90527-4 0  9995
2 53568  53.2155 226.2040 0001461  86.6596 273.4564 15.08842223130817
STARLINK-4582           
1 53569U 22101AU  24360.64283709  .00000019  00000+0  19295-4 0  9997
2 53569  53.2166 225.1059 0001400  89.4860 270.6293 15.08840382130166
STARLINK-4550           
1 53570U 22101AV  24360.63179783 -.00000411  00000+0 -77239-5 0  9995
2 53570  53.2174 225.0369 0001461  90.7558 269.3601 15.08827736130162
STARLINK-4584           
1 53571U 22101AW  24360.37050676  .00001213  00000+0  94319-4 0  9992
2 53571  53.2159 226.2466 0001382  97.2928 262.8222 15.08839632130819
STARLINK-4555           
1 53572U 22101AX  24360.34471407  .00002404  00000+0  16905-3 0  9996
2 53572  53.2177 226.0915 0001580  99.3369 260.7802 15.08843044130126
